[
    {
        "Altitude(m)": 605459.0352587599,
        "Argument of Periapsis(deg)": 0.0,
        "Eccentricity": 0.0,
        "Inclination(deg)": 60.0,
        "Latitude(deg)": 27.988234979661904,
        "Longitude(deg)": 7.7985265648441695,
        "Mean Anomaly(deg)": 32.72730000000001,
        "RAAN(deg)": 90.0,
        "Satellite Name": "Test1 398",
        "Satellite Number": 398,
        "Semi-Major Axis(m)": 6980739.136638005,
        "Time(s)": 0
    },
    {
        "Altitude(m)": 605535.8265697823,
        "Argument of Periapsis(deg)": 0.00010418945913296404,
        "Eccentricity": 0.0,
        "Inclination(deg)": 60.0,
        "Latitude(deg)": 28.5013651752471,
        "Longitude(deg)": 8.155470449755446,
        "Mean Anomaly(deg)": 33.347406145461825,
        "RAAN(deg)": 89.99957995086027,
        "Satellite Name": "Test1 398",
        "Satellite Number": 398,
        "Semi-Major Axis(m)": 6980739.136638005,
        "Time(s)": 10
    },
    {
        "Altitude(m)": 605614.3085033252,
        "Argument of Periapsis(deg)": 0.0002083789182659281,
        "Eccentricity": 0.0,
        "Inclination(deg)": 60.0,
        "Latitude(deg)": 29.013277852942817,
        "Longitude(deg)": 8.516279170823891,
        "Mean Anomaly(deg)": 33.967512290923665,
        "RAAN(deg)": 89.99915990172052,
        "Satellite Name": "Test1 398",
        "Satellite Number": 398,
        "Semi-Major Axis(m)": 6980739.136638005,
        "Time(s)": 20
    },
    {
        "Altitude(m)": 605694.4233671278,
        "Argument of Periapsis(deg)": 0.00031256837739889213,
        "Eccentricity": 0.0,
        "Inclination(deg)": 60.0,
        "Latitude(deg)": 29.52393573996274,
        "Longitude(deg)": 8.881064484213221,
        "Mean Anomaly(deg)": 34.58761843638548,
        "RAAN(deg)": 89.99873985258078,
        "Satellite Name": "Test1 398",
        "Satellite Number": 398,
        "Semi-Major Axis(m)": 6980739.136638005,
        "Time(s)": 30
    },
    {
        "Altitude(m)": 605776.1128595659,
        "Argument of Periapsis(deg)": 0.0004167578365318562,
        "Eccentricity": 0.0,
        "Inclination(deg)": 60.0,
        "Latitude(deg)": 30.033300567049757,
        "Longitude(deg)": 9.249941152411855,
        "Mean Anomaly(deg)": 35.20772458184732,
        "RAAN(deg)": 89.99831980344103,
        "Satellite Name": "Test1 398",
        "Satellite Number": 398,
        "Semi-Major Axis(m)": 6980739.136638005,
        "Time(s)": 40
    },
    {
        "Altitude(m)": 605859.3181000106,
        "Argument of Periapsis(deg)": 0.0005209472956648203,
        "Eccentricity": 0.0,
        "Inclination(deg)": 60.0,
        "Latitude(deg)": 30.541333029739015,
        "Longitude(deg)": 9.623026003049668,
        "Mean Anomaly(deg)": 35.82783072730916,
        "RAAN(deg)": 89.9978997543013,
        "Satellite Name": "Test1 398",
        "Satellite Number": 398,
        "Semi-Major Axis(m)": 6980739.136638005,
        "Time(s)": 50
    },
    {
        "Altitude(m)": 605943.9796594087,
        "Argument of Periapsis(deg)": 0.0006251367547977843,
        "Eccentricity": 0.0,
        "Inclination(deg)": 60.0,
        "Latitude(deg)": 31.047992748266832,
        "Longitude(deg)": 10.000438500762627,
        "Mean Anomaly(deg)": 36.447936872770974,
        "RAAN(deg)": 89.99747970516154,
        "Satellite Name": "Test1 398",
        "Satellite Number": 398,
        "Semi-Major Axis(m)": 6980739.136638005,
        "Time(s)": 60
    },
    {
        "Altitude(m)": 606030.0375910858,
        "Argument of Periapsis(deg)": 0.0007293262139307483,
        "Eccentricity": 0.0,
        "Inclination(deg)": 60.0,
        "Latitude(deg)": 31.55323822608042,
        "Longitude(deg)": 10.382301319069274,
        "Mean Anomaly(deg)": 37.068043018232814,
        "RAAN(deg)": 89.9970596560218,
        "Satellite Name": "Test1 398",
        "Satellite Number": 398,
        "Semi-Major Axis(m)": 6980739.136638005,
        "Time(s)": 70
    },
    {
        "Altitude(m)": 606117.4314617373,
        "Argument of Periapsis(deg)": 0.0008335156730637124,
        "Eccentricity": 0.0,
        "Inclination(deg)": 60.0,
        "Latitude(deg)": 32.0570268069064,
        "Longitude(deg)": 10.768739399200491,
        "Mean Anomaly(deg)": 37.68814916369463,
        "RAAN(deg)": 89.99663960688206,
        "Satellite Name": "Test1 398",
        "Satellite Number": 398,
        "Semi-Major Axis(m)": 6980739.136638005,
        "Time(s)": 80
    },
    {
        "Altitude(m)": 606206.100382646,
        "Argument of Periapsis(deg)": 0.0009377051321966765,
        "Eccentricity": 0.0,
        "Inclination(deg)": 60.0,
        "Latitude(deg)": 32.559314630344204,
        "Longitude(deg)": 11.159880521421691,
        "Mean Anomaly(deg)": 38.30825530915647,
        "RAAN(deg)": 89.99621955774232,
        "Satellite Name": "Test1 398",
        "Satellite Number": 398,
        "Semi-Major Axis(m)": 6980739.136638005,
        "Time(s)": 90
    },
    {
        "Altitude(m)": 606295.983041021,
        "Argument of Periapsis(deg)": 0.0010418945913296407,
        "Eccentricity": 0.0,
        "Inclination(deg)": 60.0,
        "Latitude(deg)": 33.0600565859424,
        "Longitude(deg)": 11.55585587574062,
        "Mean Anomaly(deg)": 38.9283614546183,
        "RAAN(deg)": 89.99579950860257,
        "Satellite Name": "Test1 398",
        "Satellite Number": 398,
        "Semi-Major Axis(m)": 6980739.136638005,
        "Time(s)": 100
    },
    {
        "Altitude(m)": 606387.0177315132,
        "Argument of Periapsis(deg)": 0.0011460840504626045,
        "Eccentricity": 0.0,
        "Inclination(deg)": 60.0,
        "Latitude(deg)": 33.55920626571893,
        "Longitude(deg)": 11.956799118864867,
        "Mean Anomaly(deg)": 39.548467600080116,
        "RAAN(deg)": 89.99537945946282,
        "Satellite Name": "Test1 398",
        "Satellite Number": 398,
        "Semi-Major Axis(m)": 6980739.136638005,
        "Time(s)": 110
    },
    {
        "Altitude(m)": 606479.1423878908,
        "Argument of Periapsis(deg)": 0.0012502735095955685,
        "Eccentricity": 0.0,
        "Inclination(deg)": 60.0,
        "Latitude(deg)": 34.056715915094394,
        "Longitude(deg)": 12.362846942864467,
        "Mean Anomaly(deg)": 40.168573745541956,
        "RAAN(deg)": 89.99495941032309,
        "Satellite Name": "Test1 398",
        "Satellite Number": 398,
        "Semi-Major Axis(m)": 6980739.136638005,
        "Time(s)": 120
    },
    {
        "Altitude(m)": 606572.2946148058,
        "Argument of Periapsis(deg)": 0.0013544629687285324,
        "Eccentricity": 0.0,
        "Inclination(deg)": 60.0,
        "Latitude(deg)": 34.55253638220214,
        "Longitude(deg)": 12.77413964233962,
        "Mean Anomaly(deg)": 40.788679891003795,
        "RAAN(deg)": 89.99453936118334,
        "Satellite Name": "Test1 398",
        "Satellite Number": 398,
        "Semi-Major Axis(m)": 6980739.136638005,
        "Time(s)": 130
    },
    {
        "Altitude(m)": 606666.4117196728,
        "Argument of Periapsis(deg)": 0.0014586524278614966,
        "Eccentricity": 0.0,
        "Inclination(deg)": 60.0,
        "Latitude(deg)": 35.04661706554193,
        "Longitude(deg)": 13.190820166859076,
        "Mean Anomaly(deg)": 41.408786036465635,
        "RAAN(deg)": 89.9941193120436,
        "Satellite Name": "Test1 398",
        "Satellite Number": 398,
        "Semi-Major Axis(m)": 6980739.136638005,
        "Time(s)": 140
    },
    {
        "Altitude(m)": 606761.4307446544,
        "Argument of Periapsis(deg)": 0.0015628418869944607,
        "Eccentricity": 0.0,
        "Inclination(deg)": 60.0,
        "Latitude(deg)": 35.53890585995378,
        "Longitude(deg)": 13.61303468401426,
        "Mean Anomaly(deg)": 42.02889218192745,
        "RAAN(deg)": 89.99369926290386,
        "Satellite Name": "Test1 398",
        "Satellite Number": 398,
        "Semi-Major Axis(m)": 6980739.136638005,
        "Time(s)": 150
    },
    {
        "Altitude(m)": 606857.2884987113,
        "Argument of Periapsis(deg)": 0.0016670313461274247,
        "Eccentricity": 0.0,
        "Inclination(deg)": 60.0,
        "Latitude(deg)": 36.02934910088574,
        "Longitude(deg)": 14.04093313977178,
        "Mean Anomaly(deg)": 42.64899832738929,
        "RAAN(deg)": 89.99327921376411,
        "Satellite Name": "Test1 398",
        "Satellite Number": 398,
        "Semi-Major Axis(m)": 6980739.136638005,
        "Time(s)": 160
    },
    {
        "Altitude(m)": 606953.9215897189,
        "Argument of Periapsis(deg)": 0.0017712208052603888,
        "Eccentricity": 0.0,
        "Inclination(deg)": 60.0,
        "Latitude(deg)": 36.51789150693149,
        "Longitude(deg)": 14.474668302760584,
        "Mean Anomaly(deg)": 43.269104472851105,
        "RAAN(deg)": 89.99285916462438,
        "Satellite Name": "Test1 398",
        "Satellite Number": 398,
        "Semi-Major Axis(m)": 6980739.136638005,
        "Time(s)": 170
    },
    {
        "Altitude(m)": 607051.2664566117,
        "Argument of Periapsis(deg)": 0.001875410264393353,
        "Eccentricity": 0.0,
        "Inclination(deg)": 60.0,
        "Latitude(deg)": 37.004476120629505,
        "Longitude(deg)": 14.914396317700659,
        "Mean Anomaly(deg)": 43.889210618312944,
        "RAAN(deg)": 89.99243911548463,
        "Satellite Name": "Test1 398",
        "Satellite Number": 398,
        "Semi-Major Axis(m)": 6980739.136638005,
        "Time(s)": 180
    },
    {
        "Altitude(m)": 607149.2594015751,
        "Argument of Periapsis(deg)": 0.0019795997235263173,
        "Eccentricity": 0.0,
        "Inclination(deg)": 60.0,
        "Latitude(deg)": 37.489044247510265,
        "Longitude(deg)": 15.360277254505558,
        "Mean Anomaly(deg)": 44.509316763774784,
        "RAAN(deg)": 89.9920190663449,
        "Satellite Name": "Test1 398",
        "Satellite Number": 398,
        "Semi-Major Axis(m)": 6980739.136638005,
        "Time(s)": 190
    }
]